satname,norad_id,inclination_deg,eccentricity,mean_motion_rev_per_day,perigee_km,apogee_km,l1,l2
STARLINK-1300,45374,53.0546,0.0001137,15.06403856,546.4123290915286,547.9871506661766,1 45374U 20019Q   25294.69895965 -.00001334  00000+0 -70663-4 0  9992,2 45374  53.0546  70.5689 0001137  91.1393 268.9726 15.06403856308785
STARLINK-1302,45375,53.0544,0.0001401,15.0639023,546.2712562148836,548.2117472710725,1 45375U 20019R   25294.78004677 -.00001427  00000+0 -76930-4 0  9991,2 45375  53.0544  70.2071 0001401  90.6374 269.4776 15.06390230308796
STARLINK-1304,45376,53.0577,0.0001408,15.06404941,546.2213275815393,548.1715014710699,1 45376U 20019S   25294.66578041  .00001518  00000+0  12076-3 0  9999,2 45376  53.0577  70.7200 0001408  97.9485 262.1664 15.06404941308771
STARLINK-1305,45377,53.0544,0.0001128,15.26344949,485.9754172632156,487.52413571999205,1 45377U 20019T   25294.91667823  .01852656  00000+0  63977-1 0  9997,2 45377  53.0544  68.9272 0001128  98.5988  26.3335 15.26344949  5590
STARLINK-1319,45379,53.0554,0.0001085,15.06424147,546.3861595607805,547.8889441385327,1 45379U 20019V   25294.61787194 -.00001725  00000+0 -96871-4 0  9996,2 45379  53.0554  70.9395 0001085 110.8293 249.2813 15.06424147308771
STARLINK-1266,45383,53.0552,0.0001151,15.06416212,546.3647690388007,547.9589728388901,1 45383U 20019Z   25294.61969713 -.00008299  00000+0 -53866-3 0  9999,2 45383  53.0552  50.9296 0001151 103.9622 256.1495 15.06416212309043
STARLINK-1267,45384,53.0543,0.000119,15.0638131,546.4447173936405,548.092963983725,1 45384U 20019AA  25294.60504203  .00000389  00000+0  45052-4 0  9997,2 45384  53.0543  51.6504 0001190  74.0169 286.0951 15.06381310309039
STARLINK-1272,45386,53.0542,0.0001191,15.23657667,494.000591388025,495.6377295454495,1 45386U 20019AC  25294.91667823  .01031767  00000+0  39470-1 0  9990,2 45386  53.0542  49.0955 0001191  80.9738  28.9766 15.23657667  5748
STARLINK-1274,45387,53.0359,0.0004721,15.28003441,478.54288666921184,485.02002167364117,1 45387U 20019AD  25294.71596014  .00074482  00000+0  26753-2 0  9993,2 45387  53.0359  37.2877 0004721 192.1516 167.9369 15.28003441309244
STARLINK-1280,45388,53.0547,0.0001237,15.26153429,486.4748323858694,488.17334745951575,1 45388U 20019AE  25294.91667823  .01828623  00000+0  63592-1 0  9999,2 45388  53.0547  68.8858 0001237  63.9953 204.9039 15.26153429  5588
STARLINK-1283,45389,53.0545,0.0001195,15.29086736,477.7217185854852,479.3604646493832,1 45389U 20019AF  25294.91667823 -.00000130  00000+0  78589-5 0  9991,2 45389  53.0545  47.6096 0001195  35.4811 277.5541 15.29086736  5747
STARLINK-1284,45390,53.055,0.0001275,15.06391884,546.3534473084064,548.1194175336732,1 45390U 20019AG  25294.55704794  .00000869  00000+0  77239-4 0  9990,2 45390  53.0550  51.2099 0001275  76.2494 283.8637 15.06391884309031
STARLINK-1292,45394,53.0478,0.0007867,15.88299983,301.7896432726211,312.30811473464473,1 45394U 20019AL  25294.91667823  .00290977  00000+0  10001-2 0  9998,2 45394  53.0478   5.6012 0007867 337.6012  41.5889 15.88299983  5943
STARLINK-1297,45395,53.0544,0.0001286,15.06400612,546.3190826637192,548.1002818303941,1 45395U 20019AM  25294.59391367  .00006958  00000+0  48553-3 0  9998,2 45395  53.0544  51.0430 0001286  91.8973 268.2164 15.06400612308225
STARLINK-1307,45397,53.0561,0.0001305,15.06396277,546.3192089446893,548.1267278964478,1 45397U 20019AP  25294.71923116  .00003565  00000+0  25815-3 0  9994,2 45397  53.0561  50.4788 0001305  89.4351 270.6787 15.06396277308881
STARLINK-1312,45398,53.0462,0.0004844,15.90752807,296.9400936283264,303.41004235979926,1 45398U 20019AQ  25294.91667823  .00384887  66703-4  12172-2 0  9994,2 45398  53.0462   5.0541 0004844 327.0577 254.6834 15.90752807  5772
STARLINK-1255,45399,53.0521,0.0001374,15.27322189,482.8783504555049,484.76401656433427,1 45399U 20019AR  25294.91667823  .00052751  00000+0  19442-2 0  9997,2 45399  53.0521  38.6815 0001374  47.9966 229.5306 15.27322189  5748
STARLINK-1259,45403,53.0414,0.00046,16.10155578,243.36923981057043,249.46382906225153,1 45403U 20019AV  25294.59853926  .00990499  58492-3  10205-2 0  9998,2 45403  53.0414 345.4386 0004600  26.0556 334.0709 16.10155578309762
STARLINK-1260,45404,53.056,0.0001395,15.06393577,546.2651547081632,548.1973324481214,1 45404U 20019AW  25294.72015344  .00001715  00000+0  13402-3 0  9993,2 45404  53.0560  40.4742 0001395  90.9249 269.1900 15.06393577308914
STARLINK-1263,45405,53.0549,0.0001334,15.06384122,546.3363741594403,548.1840701383098,1 45405U 20019AX  25294.57272698  .00011216  00000+0  77101-3 0  9997,2 45405  53.0549  41.1388 0001334  97.2757 262.8383 15.06384122308891
STARLINK-1265,45406,53.0554,0.0001306,15.0639396,546.3256167909049,548.1345226695194,1 45406U 20019AY  25294.58009293  .00014898  00000+0  10171-2 0  9990,2 45406  53.0554  41.1056 0001306  96.6970 263.4167 15.06393960308896
STARLINK-1278,45408,53.0534,0.0001107,15.24208757,492.4017591961783,493.9230648860048,1 45408U 20019BA  25294.91667823  .01842827  00000+0  67857-1 0  9992,2 45408  53.0534  69.0514 0001107  87.9887  74.1096 15.24208757  5591
STARLINK-1296,45412,53.0552,0.0001583,15.06406999,546.0938278133199,548.2863863754255,1 45412U 20019BE  25294.71647061  .00007445  00000+0  51807-3 0  9995,2 45412  53.0552  40.4920 0001583 101.3364 258.7803 15.06406999308915
STARLINK-1298,45413,53.05,0.0007362,15.50308009,410.82433965122163,420.8277708537744,1 45413U 20019BF  25294.91667823  .00089867  00000+0  15483-2 0  9993,2 45413  53.0500  18.7836 0007362 261.5419 130.8349 15.50308009  5847
STARLINK-1309,45414,53.0556,0.0001177,15.06399844,546.3969224743059,548.0271496373944,1 45414U 20019BG  25294.46583113  .00001948  00000+0  14960-3 0  9997,2 45414  53.0556  41.6187 0001177  90.8997 269.2127 15.06399844308862
STARLINK-1316,45415,53.0556,0.0001324,15.06405724,546.2771009318813,548.1109285845896,1 45415U 20019BH  25294.62432162  .00000346  00000+0  42117-4 0  9990,2 45415  53.0556  40.9063 0001324  98.0505 262.0634 15.06405724308923
STARLINK-1318,45416,53.0538,0.0003737,15.59143085,387.60656593306794,392.66517307573486,1 45416U 20019BJ  25294.49989976  .00061246  00000+0  76906-3 0  9994,2 45416  53.0538  12.9100 0003737   3.7121 356.3918 15.59143085309292
STARLINK-1286,45417,53.0538,0.0001385,15.18173206,510.40756612103996,512.3159572780305,1 45417U 20019BK  25294.91667823  .02031952  00000+0  89742-1 0  9999,2 45417  53.0538  69.2735 0001385  93.7986  12.8897 15.18173206  5631
STARLINK-1308,45419,53.055,0.0001314,15.06402524,546.2938324685565,548.113812036644,1 45419U 20019BM  25294.59206293 -.00000960  00000+0 -45563-4 0  9996,2 45419  53.0550  71.0495 0001314  86.4269 273.6870 15.06402524308501
STARLINK-1329,45531,53.0555,0.0001762,15.06375948,546.0650154301657,548.5055342398182,1 45531U 20025A   25294.62711177  .00012972  00000+0  88868-3 0  9992,2 45531  53.0555  10.8926 0001762  99.5155 260.6033 15.06375948304138
STARLINK-1338,45532,53.0569,0.0001304,15.06397918,546.3148726917216,548.1210052598062,1 45532U 20025B   25294.63816005  .00011114  00000+0  76387-3 0  9990,2 45532  53.0569  10.8430 0001304  91.9799 268.1339 15.06397918304139
STARLINK-1350,45535,53.0742,0.0001021,15.31933548,469.344689970696,470.74308850827947,1 45535U 20025E   25294.50441770  .00016992  00000+0  55402-3 0  9996,2 45535  53.0742 324.8073 0001021  64.9373 295.1733 15.31933548304793
STARLINK-1362,45538,53.0558,0.0001269,15.06395812,546.3455652239854,548.1032219456774,1 45538U 20025H   25294.53765801  .00008819  00000+0  61026-3 0  9994,2 45538  53.0558  11.0148 0001269 108.0932 252.0195 15.06395812304123
STARLINK-1368,45540,53.0554,0.0001427,15.06390669,546.2519049367893,548.2284075771859,1 45540U 20025K   25294.54233029  .00008170  00000+0  56687-3 0  9997,2 45540  53.0554  11.2745 0001427 113.4161 246.6978 15.06390669304119
STARLINK-1371,45542,53.0551,0.0001305,15.06392699,546.3301736351586,548.1376954490752,1 45542U 20025M   25294.51283691  .00006567  00000+0  45946-3 0  9990,2 45542  53.0551  11.4077 0001305  98.9886 261.1251 15.06392699304115
STARLINK-1372,45543,53.0568,0.0001601,15.0639539,546.1169363941654,548.3344375265306,1 45543U 20025N   25294.61604919  .00003903  00000+0  28082-3 0  9995,2 45543  53.0568  10.9461 0001601 109.4270 250.6892 15.06395390303225
STARLINK-1373,45544,53.0568,0.0001596,15.06391716,546.1316576395211,548.3422370035059,1 45544U 20025P   25294.43543240  .00000787  00000+0  71756-4 0  9999,2 45544  53.0568  11.7612 0001596  78.8206 281.2962 15.06391716304108
STARLINK-1294,45551,53.0497,0.0007927,15.57810035,388.62821543440987,399.3647558625571,1 45551U 20025W   25294.23562350  .00076481  00000+0  10052-2 0  9992,2 45551  53.0497 309.6013 0007927  17.8693 342.2595 15.57810035304968
STARLINK-1325,45554,53.057,0.0001892,15.56304948,397.07984378784295,399.6440709933195,1 45554U 20025Z   25294.91667823  .00153035  00000+0  21026-2 0  9995,2 45554  53.0570 299.2017 0001892  90.1130 322.2410 15.56304948  5867
STARLINK-1327,45555,53.0552,0.0001307,15.0641184,546.2701319675025,548.080408594953,1 45555U 20025AA  25294.54048472  .00016974  00000+0  11553-2 0  9992,2 45555  53.0552 351.2841 0001307 109.1334 250.9796 15.06411840304399
STARLINK-1336,45557,53.0294,0.0002297,16.1654024,227.44455967682188,230.4798610540638,1 45557U 20025AC  25294.86510356  .01460213  17354-2  98826-3 0  9996,2 45557  53.0294 285.4552 0002297  80.8378 279.2918 16.16540240305348
STARLINK-1356,45564,53.0552,0.0001326,15.06381845,546.3488923602699,548.1855095543633,1 45564U 20025AK  25294.54417293  .00002904  00000+0  21389-3 0  9990,2 45564  53.0552 351.2651 0001326  85.1014 275.0126 15.06381845304393
STARLINK-1357,45565,53.0633,0.0005726,15.30407473,470.67178770107967,478.5195371460868,1 45565U 20025AL  25294.53670568  .00079900  00000+0  26627-2 0  9995,2 45565  53.0633 338.0792 0005726 295.7248  64.3160 15.30407473304580
